QIANFAN-145             
1 69104U 26108A   26166.03207781 -.01955834  00000+0 -13605+1 0  9997
2 69104  89.0102  22.4644 0010921 125.5635 234.6565 14.02709330  4031
QIANFAN-146             
1 69105U 26108B   26166.06953747 -.01790175  00000+0 -10917+1 0  9999
2 69105  89.0109  22.4338 0021975 118.7449 241.5947 14.10228719  4056
QIANFAN-147             
1 69106U 26108C   26166.01096943 -.01949328  00000+0 -13243+1 0  9992
2 69106  89.0098  22.4609 0010099 127.3441 232.8662 14.04025606  4036
QIANFAN-148             
1 69107U 26108D   26166.07636374 -.01824084  00000+0 -12612+1 0  9997
2 69107  89.0097  22.4519 0012595 133.2745 226.9488 14.03427831  4048
QIANFAN-149             
1 69108U 26108E   26165.64817443 -.01985910  00000+0 -13529+1 0  9992
2 69108  89.0107  22.5000 0017530 139.6291 220.6195 14.03893931  3983
QIANFAN-150             
1 69109U 26108F   26166.05953015 -.02077194  00000+0 -13634+1 0  9999
2 69109  89.0108  22.4515 0017263 121.7388 238.5480 14.06156737  4049
QIANFAN-151             
1 69110U 26108G   26166.05481496 -.01924678  00000+0 -12873+1 0  9991
2 69110  89.0107  22.4500 0012900 123.5350 236.7065 14.04829492  4048
QIANFAN-152             
1 69111U 26108H   26166.04372092 -.02049278  00000+0 -13353+1 0  9991
2 69111  89.0101  22.4488 0016269 121.8532 238.4236 14.06513037  4049
QIANFAN-153             
1 69112U 26108J   26166.04007478 -.02100041  00000+0 -13902+1 0  9991
2 69112  89.0099  22.4471 0018508 125.4893 234.8020 14.05715786  4041
QIANFAN-154             
1 69113U 26108K   26166.10164406 -.01936964  00000+0 -12763+1 0  9998
2 69113  89.0109  22.4395 0013230 119.9806 240.2691 14.05684826  4054
QIANFAN-155             
1 69114U 26108L   26166.03693425 -.02011724  00000+0 -13372+1 0  9995
2 69114  89.0105  22.4482 0014297 125.6419 234.6097 14.05344057  4041
QIANFAN-156             
1 69115U 26108M   26166.08978736 -.01799661  00000+0 -11724+1 0  9993
2 69115  89.0115  22.4389 0016316 114.4577 245.8309 14.06664979  4054
QIANFAN-157             
1 69116U 26108N   26166.05530011 -.01792563  00000+0 -11155+1 0  9993
2 69116  89.0105  22.4322 0021810 121.2993 239.0331 14.09124790  4059
QIANFAN-158             
1 69117U 26108P   26166.07803378 -.01630033  00000+0 -10378+1 0  9994
2 69117  89.0107  22.4354 0018299 114.0477 246.2624 14.07507552  4055
QIANFAN-159             
1 69118U 26108Q   26166.07088793 -.01939569  00000+0 -12084+1 0  9993
2 69118  89.0097  22.4337 0020697 110.5886 249.7521 14.08726027  4050
QIANFAN-160             
1 69119U 26108R   26166.14008459  .00000041  00000+0  14682-4 0  9994
2 69119  89.0112  22.4263 0015886 116.5257 243.7559 14.11952593  4068
QIANFAN-161             
1 69120U 26108S   26166.05663460 -.01788802  00000+0 -11045+1 0  9992
2 69120  89.0111  22.4327 0020851 124.9273 235.3875 14.09555758  4055
QIANFAN-162             
1 69121U 26108T   26166.05263479 -.01567035  00000+0 -93571+0 0  9995
2 69121  89.0108  22.4315 0019263 131.0717 229.2136 14.10876262  4056
SMILE                   
1 69123U 26109A   26144.65318427 -.00001976  00000+0 -42379-3 0  9994
2 69123  70.0007 229.2745 0009123 259.5159 100.4951 14.57062785   802
STARLINK-37726          
1 69124U 26110A   26166.48920941  .00021171  00000+0  38964-3 0  9994
2 69124  97.2835   2.6913 0001562  85.2687 274.8743 15.49205544  5334
STARLINK-37722          
1 69125U 26110B   26166.55038853  .00028583  00000+0  52493-3 0  9992
2 69125  97.2822   2.9146 0001731  97.0248 263.1200 15.49208597  5356
STARLINK-37715          
1 69126U 26110C   26166.50002315  .00052827  00000+0  16285-2 0  9998
2 69126  97.2841   2.8850 0001835  85.9545  41.7527 15.33420188  5380
STARLINK-37706          
1 69127U 26110D   26166.50002315  .00053058  00000+0  16355-2 0  9994
2 69127  97.2842   2.8922 0001753  83.4787  59.2180 15.33421887  5388
STARLINK-37723          
1 69128U 26110E   26166.50002315  .00053106  00000+0  16369-2 0  9994
2 69128  97.2843   2.8988 0001542  88.4006  69.2961 15.33422225  5382
STARLINK-37720          
1 69129U 26110F   26166.54501757  .00050842  00000+0  92969-3 0  9998
2 69129  97.2831   2.7681 0001687 117.2512 242.8911 15.49212156  5349
STARLINK-37533          
1 69130U 26110G   26166.50002315  .00053711  00000+0  16557-2 0  9998
2 69130  97.2841   2.9176 0001443  88.0594 114.6343 15.33416472  5387
STARLINK-37530          
1 69131U 26110H   26166.50002315  .00053229  00000+0  16407-2 0  9997
2 69131  97.2841   2.9248 0002028  84.5679 133.1341 15.33420475  5385
STARLINK-37660          
1 69132U 26110J   26166.50002315 -.02383324  00000+0 -57941-1 0  9991
2 69132  97.2847   2.9030 0001925  66.9980  87.9243 15.44413209  5381
STARLINK-37633          
1 69133U 26110K   26166.53039470 -.00479179  00000+0 -10280-1 0  9994
2 69133  97.2830   2.9405 0002182  76.9446 283.2047 15.46475871  5359
